EUTELSAT 7B             
1 39163U 13022A   17345.75648929  .00000042  00000-0  00000-0 0  9996
2 39163   0.0482  33.9558 0004680 292.1651  33.8545  1.00271805 16802
